{
    "version": 0.6,
    "generator": "Overpass API 0.7.62.2 58ef4056",
    "osm3s": {
        "timestamp_osm_base": "2024-11-06T13:10:09Z",
        "copyright": "The data included in this document is from www.openstreetmap.org. The data is made available under ODbL."
    },
    "elements": [
        {
            "type": "node",
            "id": 3199588062,
            "lat": 34.7414607,
            "lon": 135.4970698,
            "timestamp": "2024-11-04T01:21:19Z",
            "version": 4,
            "changeset": 158722791,
            "user": "t_matsukura",
            "uid": 21292672,
            "tags": {
                "addr:block_number": "4番地",
                "addr:city": "大阪市",
                "addr:housenumber": "11",
                "addr:neighbourhood": "4丁目",
                "addr:postcode": "532-0002",
                "addr:province": "大阪府",
                "addr:quarter": "東三国",
                "addr:suburb": "淀川区",
                "amenity": "restaurant",
                "check_date": "2024-05-08",
                "contact:instagram": "jinqro_soba",
                "cuisine": "soba",
                "name": "甚九郎"
            }
        },
        {
            "type": "node",
            "id": 7456946832,
            "lat": 34.7311336,
            "lon": 135.4832988,
            "timestamp": "2024-10-01T17:14:14Z",
            "version": 7,
            "changeset": 157349480,
            "user": "t_matsukura",
            "uid": 21292672,
            "tags": {
                "addr:block_number": "4番",
                "addr:city": "大阪市",
                "addr:housenumber": "20号",
                "addr:neighbourhood": "1丁目",
                "addr:postcode": "5320034",
                "addr:province": "大阪府",
                "addr:quarter": "野中北",
                "addr:suburb": "淀川区",
                "amenity": "restaurant",
                "check_date": "2024-08-27",
                "contact:instagram": "https://www.instagram.com/elnague2010/",
                "cuisine": "spanish",
                "description": "※事前にご連絡いただけるとスムーズにお渡しできます。 ※UberEatsのご注文は、配送料と手数料が上乗せされます。 ※前日までなら、HPから予約ができます。",
                "name": "エルナージ",
                "name:en": "EL NAGUE",
                "phone": "0663935105",
                "takeaway": "yes",
                "website": "https://el-nague.com/"
            }
        },
        {
            "type": "node",
            "id": 10159597169,
            "lat": 34.7484742,
            "lon": 135.4915614,
            "timestamp": "2024-11-04T03:06:40Z",
            "version": 5,
            "changeset": 158724098,
            "user": "Yodogawa residents",
            "uid": 21448271,
            "tags": {
                "addr:block_number": "15番",
                "addr:city": "大阪市",
                "addr:housenumber": "1号",
                "addr:neighbourhood": "2丁目",
                "addr:postcode": "532-0001",
                "addr:province": "大阪府",
                "addr:quarter": "十八条",
                "addr:suburb": "淀川区",
                "amenity": "social_facility",
                "check_date": "2024-09-30",
                "contact:instagram": "cocokara100",
                "name": "ここから100",
                "social_facility": "outreach",
                "social_facility:for": "senior",
                "website": "https://cocokara100.com/"
            }
        },
        {
            "type": "node",
            "id": 10159629410,
            "lat": 34.7443613,
            "lon": 135.4949487,
            "timestamp": "2024-11-05T15:48:37Z",
            "version": 8,
            "changeset": 158784595,
            "user": "K_Sakanoshita",
            "uid": 389520,
            "tags": {
                "addr:block_number": "12番",
                "addr:city": "大阪市",
                "addr:housenumber": "15号",
                "addr:neighbourhood": "6丁目",
                "addr:postcode": "532-0002",
                "addr:province": "大阪府",
                "addr:quarter": "東三国",
                "addr:suburb": "淀川区",
                "amenity": "social_facility",
                "contact:instagram": "cocokara100",
                "name": "ここコミュ",
                "operator": "特定非営利活動法人ここから100",
                "social_facility": "outreach",
                "website": "https://cocokara100.com/"
            }
        },
        {
            "type": "node",
            "id": 10576279118,
            "lat": 34.7399258,
            "lon": 135.4989801,
            "timestamp": "2024-11-04T01:58:32Z",
            "version": 6,
            "changeset": 158723255,
            "user": "Yodogawa residents",
            "uid": 21448271,
            "tags": {
                "addr:block_number": "33番地",
                "addr:city": "大阪市",
                "addr:housenumber": "5号",
                "addr:neighbourhood": "1丁目",
                "addr:postcode": "532-0002",
                "addr:province": "大阪府",
                "addr:quarter": "東三国",
                "addr:suburb": "淀川区",
                "air_conditioning": "yes",
                "amenity": "cafe",
                "bar": "no",
                "capacity": "18席",
                "check_date": "2024-04-29",
                "contact:instagram": "magaracoffee",
                "cuisine": "coffee_shop",
                "delivery": "no",
                "drive_through": "no",
                "email": "magaracoffee@gmail.com",
                "highchair": "no",
                "internet_access": "no",
                "name": "真柄珈琲",
                "opening_hours": "10:00-17:00",
                "outdoor_seating": "no",
                "payment:cards": "no",
                "payment:cash": "yes",
                "payment:credit_cards": "no",
                "payment:debit_cards": "no",
                "phone": "09050974803",
                "reservation": "yes",
                "smoking": "no",
                "takeaway": "yes",
                "toilets": "yes",
                "toilets:wheelchair": "no",
                "website": "https://magaracoffee.com/",
                "wheelchair": "no"
            }
        },
        {
            "type": "node",
            "id": 10581060741,
            "lat": 34.7378285,
            "lon": 135.4992584,
            "timestamp": "2024-11-04T02:15:22Z",
            "version": 3,
            "changeset": 158723455,
            "user": "Yodogawa residents",
            "uid": 21448271,
            "tags": {
                "addr:block_number": "19番",
                "addr:city": "大阪市",
                "addr:housenumber": "23号",
                "addr:neighbourhood": "1丁目",
                "addr:postcode": "532-0003",
                "addr:province": "大阪府",
                "addr:quarter": "宮原",
                "addr:suburb": "淀川区",
                "check_date": "2023-01-25",
                "name": "MOSAIQUE",
                "shop": "hairdresser",
                "website": "http://www.mosaique.co.jp"
            }
        },
        {
            "type": "node",
            "id": 10927885661,
            "lat": 34.7363644,
            "lon": 135.4939976,
            "timestamp": "2024-11-04T02:20:53Z",
            "version": 5,
            "changeset": 158723512,
            "user": "Yodogawa residents",
            "uid": 21448271,
            "tags": {
                "addr:block_number": "3番",
                "addr:city": "大阪市",
                "addr:housenumber": "35号1階",
                "addr:neighbourhood": "2丁目",
                "addr:postcode": "532-0004",
                "addr:province": "大阪府",
                "addr:quarter": "西宮原",
                "addr:suburb": "淀川区",
                "check_date": "2024-08-27",
                "contact:instagram": "choisir_natural",
                "level": "0",
                "name": "choisir",
                "name:ja": "ショワジール",
                "shop": "wine"
            }
        },
        {
            "type": "node",
            "id": 11329292646,
            "lat": 34.7416739,
            "lon": 135.4909133,
            "timestamp": "2024-04-10T02:59:07Z",
            "version": 2,
            "changeset": 149800709,
            "user": "t_matsukura",
            "uid": 21292672,
            "tags": {
                "addr:block_number": "１３番",
                "addr:city": "大阪市",
                "addr:housenumber": "７号",
                "addr:neighbourhood": "１丁目",
                "addr:postcode": "5320006",
                "addr:province": "大阪府",
                "addr:quarter": "西三国",
                "addr:suburb": "淀川区",
                "contact:instagram": "shinosaka_office",
                "name": "新大阪眼鏡店",
                "opening_hours": "10:00-18:30",
                "payment:cash": "yes",
                "payment:credit_cards": "yes",
                "payment:paypay": "yes",
                "phone": "06-6393-0836",
                "shop": "optician",
                "website": "https://www.matsukura-megane.co.jp/index.html#shinoosaka"
            }
        },
        {
            "type": "node",
            "id": 11888032081,
            "lat": 34.7398947,
            "lon": 135.4936566,
            "timestamp": "2024-09-22T06:35:13Z",
            "version": 3,
            "changeset": 156937134,
            "user": "K_Sakanoshita",
            "uid": 389520,
            "tags": {
                "addr:block_number": "20",
                "addr:city": "大阪市",
                "addr:housenumber": "15",
                "addr:neighbourhood": "4丁目",
                "addr:postcode": "5320002",
                "addr:province": "大阪府",
                "addr:quarter": "東三国",
                "addr:suburb": "淀川区",
                "amenity": "cafe",
                "check_date": "2024-08-17",
                "contact:instagram": "horang_i2023",
                "cuisine": "coffee_shop;sandwich;bakery",
                "name": "cafe HORANG-I",
                "name:ja": "カフェ　ホランイ",
                "opening_hours": "Mo,Su,PH off; Tu-Fr 11:00-19:00; Sa 11:00-18:00",
                "outdoor_seating": "yes"
            }
        },
        {
            "type": "node",
            "id": 11889023117,
            "lat": 34.7414369,
            "lon": 135.4970813,
            "timestamp": "2024-10-25T13:38:26Z",
            "version": 6,
            "changeset": 158338272,
            "user": "K_Sakanoshita",
            "uid": 389520,
            "tags": {
                "addr:block_number": "4番地",
                "addr:city": "大阪市",
                "addr:housenumber": "11号 東明ビル6階",
                "addr:neighbourhood": "4丁目",
                "addr:postcode": "532-0002",
                "addr:province": "大阪府",
                "addr:quarter": "東三国",
                "addr:suburb": "淀川区",
                "beauty": "nails",
                "check_date": "2024-05-08",
                "contact:instagram": "mahalo_nail__teru",
                "internet_access": "no",
                "name": "Beauty Salon Mahalo",
                "opening_hours": "11:00-21:00",
                "payment:cash": "yes",
                "payment:credit_cards": "yes",
                "payment:debit_cards": "yes",
                "shop": "beauty"
            }
        },
        {
            "type": "node",
            "id": 11921174900,
            "lat": 34.7340261,
            "lon": 135.4893903,
            "timestamp": "2024-11-04T01:49:00Z",
            "version": 3,
            "changeset": 158723146,
            "user": "Yodogawa residents",
            "uid": 21448271,
            "tags": {
                "addr:block_number": "1番地",
                "addr:city": "大阪市",
                "addr:housenumber": "37号 シャンボール第2新大阪108号",
                "addr:neighbourhood": "2丁目",
                "addr:postcode": "532-0005",
                "addr:province": "大阪府",
                "addr:quarter": "三国本町",
                "addr:suburb": "淀川区",
                "amenity": "restaurant",
                "check_date": "2024-05-18",
                "contact:instagram": "takoyakisakaba_maruhachi",
                "cuisine": "たこ焼き",
                "internet_access": "no",
                "name": "たこ焼き酒場まるはち",
                "opening_hours": "11:00~14:30 17:30~22:00",
                "payment:cards": "no",
                "payment:cash": "yes",
                "payment:credit_cards": "no",
                "payment:debit_cards": "no",
                "wheelchair": "limited"
            }
        },
        {
            "type": "node",
            "id": 11921174901,
            "lat": 34.7388576,
            "lon": 135.4866877,
            "timestamp": "2024-11-04T01:55:30Z",
            "version": 9,
            "changeset": 158723225,
            "user": "Yodogawa residents",
            "uid": 21448271,
            "tags": {
                "addr:block_number": "17番",
                "addr:city": "大阪市",
                "addr:housenumber": "3号",
                "addr:neighbourhood": "3丁目",
                "addr:postcode": "532-0006",
                "addr:province": "大阪府",
                "addr:quarter": "西三国",
                "addr:suburb": "淀川区",
                "amenity": "restaurant",
                "check_date": "2024-08-27",
                "contact:instagram": "1004_m1kun1_",
                "cuisine": "korean",
                "name": "1004〜てんし〜",
                "opening_hours": "日、月曜日定休日   ランチ11:30~14:30  ディナー17:30~21:30   火曜日         ディナーのみ営業",
                "phone": "+81 678975733",
                "wheelchair": "limited"
            }
        },
        {
            "type": "node",
            "id": 12139720083,
            "lat": 34.7336161,
            "lon": 135.4878840,
            "timestamp": "2024-11-04T02:16:57Z",
            "version": 5,
            "changeset": 158723477,
            "user": "Yodogawa residents",
            "uid": 21448271,
            "tags": {
                "addr:block_number": "12番",
                "addr:city": "大阪市",
                "addr:housenumber": "27号",
                "addr:neighbourhood": "2丁目",
                "addr:postcode": "532-0005",
                "addr:province": "大阪府",
                "addr:quarter": "三国本町",
                "addr:suburb": "淀川区",
                "check_date": "2024-08-27",
                "clothes": "children",
                "contact:instagram": "rukkarukka_shop",
                "name": "ルッカルッカ",
                "name:en": "rukka rukka",
                "shop": "clothes"
            }
        },
        {
            "type": "node",
            "id": 12141026024,
            "lat": 34.7442985,
            "lon": 135.4949887,
            "timestamp": "2024-11-05T15:48:37Z",
            "version": 8,
            "changeset": 158784595,
            "user": "K_Sakanoshita",
            "uid": 389520,
            "tags": {
                "addr:block_number": "12番",
                "addr:city": "大阪市",
                "addr:floor": "東三国6-12-15 2F",
                "addr:housenumber": "15号",
                "addr:neighbourhood": "6丁目",
                "addr:postcode": "532-0002",
                "addr:province": "大阪府",
                "addr:quarter": "東三国",
                "addr:suburb": "淀川区",
                "amenity": "studio",
                "check_date": "2024-08-28",
                "contact:instagram": "fmhime772",
                "name": "エフエムひめ",
                "name:ja": "エフエムひめ",
                "studio": "radio",
                "website": "https://owaraipro.wixsite.com/honjopro/blank-1"
            }
        },
        {
            "type": "node",
            "id": 12141088959,
            "lat": 34.7416414,
            "lon": 135.4911304,
            "timestamp": "2024-11-04T16:21:51Z",
            "version": 3,
            "changeset": 158747726,
            "user": "K_Sakanoshita",
            "uid": 389520,
            "tags": {
                "addr:block_number": "１３番",
                "addr:city": "大阪市",
                "addr:housenumber": "４号　共栄マンション１階",
                "addr:neighbourhood": "１丁目",
                "addr:postcode": "532-0006",
                "addr:province": "大阪府",
                "addr:quarter": "西三国",
                "addr:suburb": "淀川区",
                "contact:instagram": "hocomaru_workshop",
                "craft": "yes",
                "name": "まちかど工房 ほこまぁる"
            }
        },
        {
            "type": "node",
            "id": 12141108686,
            "lat": 34.7416710,
            "lon": 135.4920297,
            "timestamp": "2024-11-04T16:25:05Z",
            "version": 4,
            "changeset": 158747850,
            "user": "K_Sakanoshita",
            "uid": 389520,
            "tags": {
                "addr:block_number": "１７番",
                "addr:city": "大阪市",
                "addr:housenumber": "３号",
                "addr:neighbourhood": "１丁目",
                "addr:postcode": "532-0006",
                "addr:province": "大阪府",
                "addr:quarter": "西三国",
                "addr:suburb": "淀川区",
                "contact:instagram": "saronn_mamii",
                "name": "カイロプラクティック マミー",
                "shop": "massage",
                "website": "https://chiropractic-mammy.com/"
            }
        },
        {
            "type": "node",
            "id": 12141117386,
            "lat": 34.7384232,
            "lon": 135.4833331,
            "timestamp": "2024-09-10T13:39:44Z",
            "version": 2,
            "changeset": 156441277,
            "user": "t_matsukura",
            "uid": 21292672,
            "tags": {
                "addr:block_number": "8番",
                "addr:city": "大阪市",
                "addr:housenumber": "19号 三国ビル1階",
                "addr:neighbourhood": "4丁目",
                "addr:postcode": "532-0006",
                "addr:province": "大阪府",
                "addr:quarter": "西三国",
                "addr:suburb": "淀川区",
                "amenity": "cafe",
                "check_date": "2024-08-28",
                "fixme:type": "喫茶店",
                "name": "ASSIST阪急三国駅前店"
            }
        },
        {
            "type": "node",
            "id": 12141177241,
            "lat": 34.7441325,
            "lon": 135.4924068,
            "timestamp": "2024-11-04T02:26:19Z",
            "version": 4,
            "changeset": 158723583,
            "user": "Yodogawa residents",
            "uid": 21448271,
            "tags": {
                "addr:block_number": "21番",
                "addr:city": "大阪市",
                "addr:housenumber": "43号",
                "addr:neighbourhood": "1丁目",
                "addr:postcode": "532-0006",
                "addr:province": "大阪府",
                "addr:quarter": "西三国",
                "addr:suburb": "淀川区",
                "check_date": "2024-08-28",
                "name": "まごころ不動産 株式会社REAL",
                "office": "estate_agent",
                "website": "http://magocoro-real.com"
            }
        },
        {
            "type": "node",
            "id": 12143279382,
            "lat": 34.7366011,
            "lon": 135.4836383,
            "timestamp": "2024-11-04T02:24:34Z",
            "version": 4,
            "changeset": 158723556,
            "user": "Yodogawa residents",
            "uid": 21448271,
            "tags": {
                "addr:block_number": "36番",
                "addr:city": "大阪市",
                "addr:housenumber": "18号 2階",
                "addr:neighbourhood": "3丁目",
                "addr:postcode": "532-0005",
                "addr:province": "大阪府",
                "addr:quarter": "三国本町",
                "addr:suburb": "淀川区",
                "check_date": "2024-08-29",
                "name": "【姿勢改善×肩こり専門】らくりら 三国店",
                "shop": "massage",
                "website": "https://beauty.hotpepper.jp/kr/slnH000691754/"
            }
        },
        {
            "type": "node",
            "id": 12167450571,
            "lat": 34.7374913,
            "lon": 135.4827959,
            "timestamp": "2024-11-04T02:22:52Z",
            "version": 3,
            "changeset": 158723532,
            "user": "Yodogawa residents",
            "uid": 21448271,
            "tags": {
                "addr:block_number": "10番",
                "addr:city": "大阪市",
                "addr:housenumber": "17号",
                "addr:neighbourhood": "3丁目",
                "addr:postcode": "532-0033",
                "addr:province": "大阪府",
                "addr:quarter": "新高",
                "addr:suburb": "淀川区",
                "amenity": "pub",
                "check_date": "2024-09-05",
                "contact:instagram": "shukou0329",
                "name": "スタンディングバー酒甲",
                "website": "https://shu-kou.com/"
            }
        },
        {
            "type": "node",
            "id": 12167450573,
            "lat": 34.7380625,
            "lon": 135.4851760,
            "timestamp": "2024-10-25T13:20:44Z",
            "version": 4,
            "changeset": 158337520,
            "user": "K_Sakanoshita",
            "uid": 389520,
            "tags": {
                "addr:block_number": "26番",
                "addr:city": "大阪市",
                "addr:housenumber": "4号",
                "addr:neighbourhood": "3丁目",
                "addr:postcode": "532-0005",
                "addr:province": "大阪府",
                "addr:quarter": "三国本町",
                "addr:suburb": "淀川区",
                "check_date": "2024-09-10",
                "contact:instagram": "miku_salon_de_prima",
                "name": "Salon de Prima サロンドプリマ",
                "shop": "massage"
            }
        },
        {
            "type": "node",
            "id": 12167557731,
            "lat": 34.7417886,
            "lon": 135.4960585,
            "timestamp": "2024-11-04T01:44:27Z",
            "version": 3,
            "changeset": 158723089,
            "user": "Yodogawa residents",
            "uid": 21448271,
            "tags": {
                "addr:block_number": "7番地",
                "addr:city": "大阪市",
                "addr:housenumber": "7号 パレブラン新御堂102",
                "addr:neighbourhood": "5丁目",
                "addr:postcode": "532-0002",
                "addr:province": "大阪府",
                "addr:quarter": "東三国",
                "addr:suburb": "淀川区",
                "contact:instagram": "pola_higashimikuni",
                "name": "ポーラザビューティ東三国店",
                "shop": "massage"
            }
        },
        {
            "type": "node",
            "id": 12167610786,
            "lat": 34.7399121,
            "lon": 135.5010006,
            "timestamp": "2024-11-04T02:02:21Z",
            "version": 3,
            "changeset": 158723306,
            "user": "Yodogawa residents",
            "uid": 21448271,
            "tags": {
                "addr:block_number": "20番",
                "addr:city": "大阪市",
                "addr:housenumber": "2号",
                "addr:neighbourhood": "1丁目",
                "addr:postcode": "532-0002",
                "addr:province": "大阪府",
                "addr:quarter": "東三国",
                "addr:suburb": "淀川区",
                "amenity": "fast_food",
                "contact:instagram": "omusubi_on",
                "cuisine": "おにぎり;regional",
                "name": "恩結び-on-"
            }
        },
        {
            "type": "node",
            "id": 12168207781,
            "lat": 34.7388599,
            "lon": 135.4867327,
            "timestamp": "2024-09-20T16:22:40Z",
            "version": 2,
            "changeset": 156876292,
            "user": "t_matsukura",
            "uid": 21292672,
            "tags": {
                "addr:block_number": "17番",
                "addr:city": "大阪市",
                "addr:housenumber": "2号",
                "addr:neighbourhood": "3丁目",
                "addr:postcode": "532-0006",
                "addr:province": "大阪府",
                "addr:quarter": "西三国",
                "addr:suburb": "淀川区",
                "clothes": "children",
                "name": "∞end",
                "name:ja": "エイトエンド",
                "shop": "clothes"
            }
        },
        {
            "type": "node",
            "id": 12168219654,
            "lat": 34.7442205,
            "lon": 135.4923919,
            "timestamp": "2024-09-10T14:09:07Z",
            "version": 1,
            "changeset": 156442750,
            "user": "t_matsukura",
            "uid": 21292672,
            "tags": {
                "addr:block_number": "21番",
                "addr:city": "大阪市",
                "addr:housenumber": "43号 103",
                "addr:neighbourhood": "1丁目",
                "addr:postcode": "532-0006",
                "addr:province": "大阪府",
                "addr:quarter": "西三国",
                "addr:suburb": "淀川区",
                "amenity": "social_facility",
                "name": "合同会社コージープレイス",
                "social_facility": "ambulatory_care"
            }
        },
        {
            "type": "node",
            "id": 12168233080,
            "lat": 34.7442933,
            "lon": 135.4923703,
            "timestamp": "2024-09-23T02:52:33Z",
            "version": 2,
            "changeset": 156974696,
            "user": "K_Sakanoshita",
            "uid": 389520,
            "tags": {
                "addr:block_number": "21番",
                "addr:city": "大阪市",
                "addr:housenumber": "43号 105号室",
                "addr:neighbourhood": "1丁目",
                "addr:postcode": "532-0006",
                "addr:province": "大阪府",
                "addr:quarter": "西三国",
                "addr:suburb": "淀川区",
                "amenity": "social_facility",
                "name": "株式会社ハートレスト",
                "social_facility": "healthcare"
            }
        },
        {
            "type": "node",
            "id": 12193808822,
            "lat": 34.7398453,
            "lon": 135.4907109,
            "timestamp": "2024-09-23T04:50:51Z",
            "version": 1,
            "changeset": 156976468,
            "user": "t_matsukura",
            "uid": 21292672,
            "tags": {
                "addr:block_number": "3番",
                "addr:city": "大阪市",
                "addr:housenumber": "29号",
                "addr:neighbourhood": "1丁目",
                "addr:postcode": "532-0006",
                "addr:province": "大阪府",
                "addr:quarter": "西三国",
                "addr:suburb": "淀川区",
                "amenity": "community_centre",
                "name": "西淀川・淀川健康友の会 ふれあい三国支部 ふれあいセンター"
            }
        },
        {
            "type": "node",
            "id": 12204987985,
            "lat": 34.7384303,
            "lon": 135.4934829,
            "timestamp": "2024-11-04T02:31:38Z",
            "version": 2,
            "changeset": 158723633,
            "user": "Yodogawa residents",
            "uid": 21448271,
            "tags": {
                "addr:block_number": "2番",
                "addr:city": "大阪市",
                "addr:housenumber": "1号102",
                "addr:neighbourhood": "3丁目",
                "addr:postcode": "532-0004",
                "addr:province": "大阪府",
                "addr:quarter": "西宮原",
                "addr:suburb": "淀川区",
                "amenity": "language_school",
                "name": "ECCジュニア西宮原3丁目教室",
                "website": "https://eccjuniorbs.jp/ht272129/"
            }
        },
        {
            "type": "node",
            "id": 12309539297,
            "lat": 34.7334227,
            "lon": 135.4899549,
            "timestamp": "2024-11-03T14:56:10Z",
            "version": 1,
            "changeset": 158703104,
            "user": "K_Sakanoshita",
            "uid": 389520,
            "tags": {
                "contact:instagram": "holidayinn_shinosaka",
                "name": "ホリデイ・イン&スイーツ新大阪",
                "tourism": "hotel",
                "website": "https://hisuite-shinosaka.com/"
            }
        },
        {
            "type": "way",
            "id": 271389852,
            "timestamp": "2024-09-23T03:05:20Z",
            "version": 6,
            "changeset": 156974873,
            "user": "K_Sakanoshita",
            "uid": 389520,
            "nodes": [
                2763436090,
                2763436091,
                2763436093,
                2763436094,
                2763436095,
                2763436090
            ],
            "tags": {
                "addr:block_number": "32番",
                "addr:city": "大阪市",
                "addr:housenumber": "4号",
                "addr:neighbourhood": "1丁目",
                "addr:postcode": "532-0002",
                "addr:province": "大阪府",
                "addr:quarter": "東三国",
                "addr:suburb": "淀川区",
                "amenity": "place_of_worship",
                "denomination": "jodo_shinshu",
                "name": "常光寺",
                "religion": "buddhist"
            }
        },
        {
            "type": "way",
            "id": 271389853,
            "timestamp": "2015-09-06T00:13:33Z",
            "version": 3,
            "changeset": 33823880,
            "user": "mfuji",
            "uid": 659706,
            "nodes": [
                2763436096,
                2763436097,
                2763436098,
                2763436099,
                2763436100,
                2763436101,
                2763436096
            ],
            "tags": {
                "amenity": "place_of_worship",
                "denomination": "obaku",
                "name": "自敬寺",
                "religion": "buddhist"
            }
        },
        {
            "type": "way",
            "id": 272227742,
            "timestamp": "2024-11-04T02:38:25Z",
            "version": 5,
            "changeset": 158723708,
            "user": "Yodogawa residents",
            "uid": 21448271,
            "nodes": [
                2771832435,
                2771832437,
                2771832454,
                2771832456,
                2771832475,
                2771832438,
                2771832439,
                2771832469,
                2771832470,
                2771832471,
                2771832450,
                2771832451,
                2771832463,
                2771832440,
                2771832441,
                2771832442,
                2771832443,
                2771832444,
                11472376715,
                2771832435
            ],
            "tags": {
                "amenity": "college",
                "contact:instagram": "osakabunka",
                "name": "学校法人ミクニ学園 大阪文化服装学院",
                "source": "Bing,2011-4",
                "website": "https://www.osaka-bunka.com/"
            }
        },
        {
            "type": "node",
            "id": 2763436090,
            "lat": 34.7409861,
            "lon": 135.4988688
        },
        {
            "type": "node",
            "id": 2763436091,
            "lat": 34.7409856,
            "lon": 135.4991727
        },
        {
            "type": "node",
            "id": 2763436093,
            "lat": 34.7406938,
            "lon": 135.4992272
        },
        {
            "type": "node",
            "id": 2763436094,
            "lat": 34.7406834,
            "lon": 135.4989492
        },
        {
            "type": "node",
            "id": 2763436095,
            "lat": 34.7407353,
            "lon": 135.4988693
        },
        {
            "type": "node",
            "id": 2763436096,
            "lat": 34.7421107,
            "lon": 135.4881782
        },
        {
            "type": "node",
            "id": 2763436097,
            "lat": 34.7421002,
            "lon": 135.4880872
        },
        {
            "type": "node",
            "id": 2763436098,
            "lat": 34.7418236,
            "lon": 135.4881590
        },
        {
            "type": "node",
            "id": 2763436099,
            "lat": 34.7417497,
            "lon": 135.4881890
        },
        {
            "type": "node",
            "id": 2763436100,
            "lat": 34.7417881,
            "lon": 135.4884938
        },
        {
            "type": "node",
            "id": 2763436101,
            "lat": 34.7421304,
            "lon": 135.4884542
        },
        {
            "type": "node",
            "id": 2771832435,
            "lat": 34.7360113,
            "lon": 135.4839283
        },
        {
            "type": "node",
            "id": 2771832437,
            "lat": 34.7360698,
            "lon": 135.4844482
        },
        {
            "type": "node",
            "id": 2771832438,
            "lat": 34.7364524,
            "lon": 135.4844305
        },
        {
            "type": "node",
            "id": 2771832439,
            "lat": 34.7364410,
            "lon": 135.4841645
        },
        {
            "type": "node",
            "id": 2771832440,
            "lat": 34.7362354,
            "lon": 135.4840698
        },
        {
            "type": "node",
            "id": 2771832441,
            "lat": 34.7362351,
            "lon": 135.4840569
        },
        {
            "type": "node",
            "id": 2771832442,
            "lat": 34.7362343,
            "lon": 135.4840164
        },
        {
            "type": "node",
            "id": 2771832443,
            "lat": 34.7360559,
            "lon": 135.4840330
        },
        {
            "type": "node",
            "id": 2771832444,
            "lat": 34.7360421,
            "lon": 135.4839253
        },
        {
            "type": "node",
            "id": 2771832450,
            "lat": 34.7363813,
            "lon": 135.4838898
        },
        {
            "type": "node",
            "id": 2771832451,
            "lat": 34.7363862,
            "lon": 135.4840569
        },
        {
            "type": "node",
            "id": 2771832454,
            "lat": 34.7360896,
            "lon": 135.4844468
        },
        {
            "type": "node",
            "id": 2771832456,
            "lat": 34.7363519,
            "lon": 135.4844350
        },
        {
            "type": "node",
            "id": 2771832463,
            "lat": 34.7362965,
            "lon": 135.4840646
        },
        {
            "type": "node",
            "id": 2771832469,
            "lat": 34.7364405,
            "lon": 135.4841497
        },
        {
            "type": "node",
            "id": 2771832470,
            "lat": 34.7364320,
            "lon": 135.4838929
        },
        {
            "type": "node",
            "id": 2771832471,
            "lat": 34.7364317,
            "lon": 135.4838849
        },
        {
            "type": "node",
            "id": 2771832475,
            "lat": 34.7364008,
            "lon": 135.4844328
        },
        {
            "type": "node",
            "id": 11472376715,
            "lat": 34.7360261,
            "lon": 135.4839269
        },
        {
            "type": "way",
            "id": 289038693,
            "bounds": {
                "minlat": 34.7357212,
                "minlon": 135.5018063,
                "maxlat": 34.7378725,
                "maxlon": 135.5028478
            },
            "nodes": [
                2925892919,
                2925901159
            ],
            "geometry": [
                {
                    "lat": 34.7357212,
                    "lon": 135.5018063
                },
                {
                    "lat": 34.7378725,
                    "lon": 135.5028478
                }
            ],
            "tags": {
                "natural": "tree_row",
                "source": "Bing, 2011-4"
            }
        },
        {
            "type": "way",
            "id": 289288422,
            "bounds": {
                "minlat": 34.7371793,
                "minlon": 135.5010853,
                "maxlat": 34.7373832,
                "maxlon": 135.5015403
            },
            "nodes": [
                2928303009,
                2928303011,
                12012642457,
                2928303043
            ],
            "geometry": [
                {
                    "lat": 34.7371793,
                    "lon": 135.5010853
                },
                {
                    "lat": 34.7372192,
                    "lon": 135.5015349
                },
                {
                    "lat": 34.737369,
                    "lon": 135.5015403
                },
                {
                    "lat": 34.7373832,
                    "lon": 135.501538
                }
            ],
            "tags": {
                "barrier": "hedge",
                "source": "Bing, 2011-4"
            }
        },
        {
            "type": "way",
            "id": 293124984,
            "bounds": {
                "minlat": 34.7403526,
                "minlon": 135.5041613,
                "maxlat": 34.7419631,
                "maxlon": 135.5047939
            },
            "nodes": [
                2966871821,
                7454128591,
                2966872570
            ],
            "geometry": [
                {
                    "lat": 34.7403526,
                    "lon": 135.5041613
                },
                {
                    "lat": 34.7410593,
                    "lon": 135.5044565
                },
                {
                    "lat": 34.7419631,
                    "lon": 135.5047939
                }
            ],
            "tags": {
                "natural": "tree_row",
                "source": "Bing, 2011-4"
            }
        },
        {
            "type": "way",
            "id": 302241305,
            "bounds": {
                "minlat": 34.7405486,
                "minlon": 135.4964092,
                "maxlat": 34.740587,
                "maxlon": 135.4972303
            },
            "nodes": [
                3064913080,
                3064913092
            ],
            "geometry": [
                {
                    "lat": 34.7405486,
                    "lon": 135.4964092
                },
                {
                    "lat": 34.740587,
                    "lon": 135.4972303
                }
            ],
            "tags": {
                "natural": "tree_row",
                "source": "Bing, 2011-4"
            }
        },
        {
            "type": "way",
            "id": 304296089,
            "bounds": {
                "minlat": 34.7417244,
                "minlon": 135.4963503,
                "maxlat": 34.7417378,
                "maxlon": 135.4968612
            },
            "nodes": [
                3088268195,
                3088268197
            ],
            "geometry": [
                {
                    "lat": 34.7417244,
                    "lon": 135.4963503
                },
                {
                    "lat": 34.7417378,
                    "lon": 135.4968612
                }
            ],
            "tags": {
                "natural": "tree_row",
                "source": "Bing, 2011-4"
            }
        },
        {
            "type": "way",
            "id": 304296090,
            "bounds": {
                "minlat": 34.7416675,
                "minlon": 135.4975787,
                "maxlat": 34.7416764,
                "maxlon": 135.4980892
            },
            "nodes": [
                3088268189,
                3088268191
            ],
            "geometry": [
                {
                    "lat": 34.7416675,
                    "lon": 135.4975787
                },
                {
                    "lat": 34.7416764,
                    "lon": 135.4980892
                }
            ],
            "tags": {
                "natural": "tree_row",
                "source": "Bing, 2011-4"
            }
        },
        {
            "type": "way",
            "id": 304296091,
            "bounds": {
                "minlat": 34.7417051,
                "minlon": 135.4957401,
                "maxlat": 34.741718,
                "maxlon": 135.4962423
            },
            "nodes": [
                3088268193,
                3088268194
            ],
            "geometry": [
                {
                    "lat": 34.7417051,
                    "lon": 135.4957401
                },
                {
                    "lat": 34.741718,
                    "lon": 135.4962423
                }
            ],
            "tags": {
                "natural": "tree_row",
                "source": "Bing, 2011-4"
            }
        },
        {
            "type": "way",
            "id": 304296092,
            "bounds": {
                "minlat": 34.7416324,
                "minlon": 135.4963395,
                "maxlat": 34.7416572,
                "maxlon": 135.497216
            },
            "nodes": [
                3088268188,
                3088268183
            ],
            "geometry": [
                {
                    "lat": 34.7416572,
                    "lon": 135.497216
                },
                {
                    "lat": 34.7416324,
                    "lon": 135.4963395
                }
            ],
            "tags": {
                "natural": "tree_row",
                "source": "Bing, 2011-4"
            }
        },
        {
            "type": "way",
            "id": 304296093,
            "bounds": {
                "minlat": 34.744838,
                "minlon": 135.5000095,
                "maxlat": 34.7449121,
                "maxlon": 135.5001283
            },
            "nodes": [
                3088268565,
                3088268568,
                3088268570
            ],
            "geometry": [
                {
                    "lat": 34.744838,
                    "lon": 135.5000095
                },
                {
                    "lat": 34.7448586,
                    "lon": 135.5001283
                },
                {
                    "lat": 34.7449121,
                    "lon": 135.5001185
                }
            ],
            "tags": {
                "barrier": "hedge"
            }
        },
        {
            "type": "way",
            "id": 304296094,
            "bounds": {
                "minlat": 34.7446563,
                "minlon": 135.4990715,
                "maxlat": 34.7450144,
                "maxlon": 135.4999562
            },
            "nodes": [
                3088268519,
                3088268564,
                3088268576
            ],
            "geometry": [
                {
                    "lat": 34.7446563,
                    "lon": 135.4990715
                },
                {
                    "lat": 34.7448291,
                    "lon": 135.4999562
                },
                {
                    "lat": 34.7450144,
                    "lon": 135.4999213
                }
            ],
            "tags": {
                "barrier": "hedge",
                "source": "Bing, 2011-4"
            }
        },
        {
            "type": "way",
            "id": 304296096,
            "bounds": {
                "minlat": 34.7458097,
                "minlon": 135.4988759,
                "maxlat": 34.7459252,
                "maxlon": 135.4993449
            },
            "nodes": [
                3088268663,
                3088268667,
                3088268676,
                3088268680
            ],
            "geometry": [
                {
                    "lat": 34.7458097,
                    "lon": 135.4988759
                },
                {
                    "lat": 34.745833,
                    "lon": 135.4990039
                },
                {
                    "lat": 34.7458979,
                    "lon": 135.4991085
                },
                {
                    "lat": 34.7459252,
                    "lon": 135.4993449
                }
            ],
            "tags": {
                "barrier": "hedge",
                "source": "Bing, 2011-4"
            }
        },
        {
            "type": "way",
            "id": 304296097,
            "bounds": {
                "minlat": 34.7458683,
                "minlon": 135.498803,
                "maxlat": 34.7460897,
                "maxlon": 135.498928
            },
            "nodes": [
                3088268696,
                3088268695,
                3088268672,
                3088268675
            ],
            "geometry": [
                {
                    "lat": 34.7460897,
                    "lon": 135.4989038
                },
                {
                    "lat": 34.7460791,
                    "lon": 135.498803
                },
                {
                    "lat": 34.7458683,
                    "lon": 135.4988358
                },
                {
                    "lat": 34.745878,
                    "lon": 135.498928
                }
            ],
            "tags": {
                "barrier": "hedge",
                "source": "Bing, 2011-4"
            }
        },
        {
            "type": "way",
            "id": 304316791,
            "bounds": {
                "minlat": 34.7401005,
                "minlon": 135.4913264,
                "maxlat": 34.7401646,
                "maxlon": 135.4919867
            },
            "nodes": [
                3088438181,
                3088438170
            ],
            "geometry": [
                {
                    "lat": 34.7401646,
                    "lon": 135.4919867
                },
                {
                    "lat": 34.7401005,
                    "lon": 135.4913264
                }
            ],
            "tags": {
                "natural": "tree_row"
            }
        },
        {
            "type": "way",
            "id": 304316792,
            "bounds": {
                "minlat": 34.7401783,
                "minlon": 135.4921147,
                "maxlat": 34.7402094,
                "maxlon": 135.4924109
            },
            "nodes": [
                3088438191,
                3088438185
            ],
            "geometry": [
                {
                    "lat": 34.7402094,
                    "lon": 135.4924109
                },
                {
                    "lat": 34.7401783,
                    "lon": 135.4921147
                }
            ],
            "tags": {
                "natural": "tree_row",
                "source": "Bing, 2011-4"
            }
        },
        {
            "type": "way",
            "id": 304316793,
            "bounds": {
                "minlat": 34.7403562,
                "minlon": 135.4911325,
                "maxlat": 34.740655,
                "maxlon": 135.4912021
            },
            "nodes": [
                3088438228,
                3088438204
            ],
            "geometry": [
                {
                    "lat": 34.740655,
                    "lon": 135.4911325
                },
                {
                    "lat": 34.7403562,
                    "lon": 135.4912021
                }
            ],
            "tags": {
                "natural": "tree_row"
            }
        },
        {
            "type": "way",
            "id": 304316794,
            "bounds": {
                "minlat": 34.7402382,
                "minlon": 135.4926542,
                "maxlat": 34.7402579,
                "maxlon": 135.4928357
            },
            "nodes": [
                3088438198,
                3088438195
            ],
            "geometry": [
                {
                    "lat": 34.7402579,
                    "lon": 135.4928357
                },
                {
                    "lat": 34.7402382,
                    "lon": 135.4926542
                }
            ],
            "tags": {
                "natural": "tree_row",
                "source": "Bing, 2011-4"
            }
        },
        {
            "type": "way",
            "id": 304316795,
            "bounds": {
                "minlat": 34.7401087,
                "minlon": 135.491206,
                "maxlat": 34.7402766,
                "maxlon": 135.4913234
            },
            "nodes": [
                3088438201,
                3088438182,
                3088438172
            ],
            "geometry": [
                {
                    "lat": 34.7402766,
                    "lon": 135.491206
                },
                {
                    "lat": 34.7401687,
                    "lon": 135.4912327
                },
                {
                    "lat": 34.7401087,
                    "lon": 135.4913234
                }
            ],
            "tags": {
                "natural": "tree_row"
            }
        },
        {
            "type": "way",
            "id": 304499492,
            "bounds": {
                "minlat": 34.7438783,
                "minlon": 135.4978066,
                "maxlat": 34.7441871,
                "maxlon": 135.4978487
            },
            "nodes": [
                3090467394,
                3090467216
            ],
            "geometry": [
                {
                    "lat": 34.7441871,
                    "lon": 135.4978066
                },
                {
                    "lat": 34.7438783,
                    "lon": 135.4978487
                }
            ],
            "tags": {
                "natural": "tree_row",
                "source": "Bing, 2011-4"
            }
        },
        {
            "type": "way",
            "id": 304784288,
            "bounds": {
                "minlat": 34.7456745,
                "minlon": 135.4970378,
                "maxlat": 34.7456874,
                "maxlon": 135.4973917
            },
            "nodes": [
                3093848675,
                3093848674
            ],
            "geometry": [
                {
                    "lat": 34.7456874,
                    "lon": 135.4970378
                },
                {
                    "lat": 34.7456745,
                    "lon": 135.4973917
                }
            ],
            "tags": {
                "natural": "tree_row",
                "source": "Bing, 2007-09"
            }
        },
        {
            "type": "way",
            "id": 304784289,
            "bounds": {
                "minlat": 34.7455732,
                "minlon": 135.4969835,
                "maxlat": 34.7455861,
                "maxlon": 135.497335
            },
            "nodes": [
                3093848673,
                3093848670
            ],
            "geometry": [
                {
                    "lat": 34.7455861,
                    "lon": 135.4969835
                },
                {
                    "lat": 34.7455732,
                    "lon": 135.497335
                }
            ],
            "tags": {
                "natural": "tree_row",
                "source": "Bing, 2007-09"
            }
        },
        {
            "type": "way",
            "id": 304784290,
            "bounds": {
                "minlat": 34.7460774,
                "minlon": 135.49744,
                "maxlat": 34.746394,
                "maxlon": 135.4974932
            },
            "nodes": [
                3093848775,
                3093848736
            ],
            "geometry": [
                {
                    "lat": 34.746394,
                    "lon": 135.49744
                },
                {
                    "lat": 34.7460774,
                    "lon": 135.4974932
                }
            ],
            "tags": {
                "natural": "tree_row",
                "source": "Bing, 2007-09"
            }
        },
        {
            "type": "way",
            "id": 304784291,
            "bounds": {
                "minlat": 34.7469631,
                "minlon": 135.4965659,
                "maxlat": 34.747052,
                "maxlon": 135.4972714
            },
            "nodes": [
                3093848833,
                3093848839
            ],
            "geometry": [
                {
                    "lat": 34.7469631,
                    "lon": 135.4965659
                },
                {
                    "lat": 34.747052,
                    "lon": 135.4972714
                }
            ],
            "tags": {
                "natural": "tree_row",
                "source": "Bing, 2007-09"
            }
        },
        {
            "type": "way",
            "id": 304784293,
            "bounds": {
                "minlat": 34.7457062,
                "minlon": 135.4975198,
                "maxlat": 34.7459692,
                "maxlon": 135.4975536
            },
            "nodes": [
                3093848717,
                3093848683,
                3093848680,
                3093848676
            ],
            "geometry": [
                {
                    "lat": 34.7459692,
                    "lon": 135.4975198
                },
                {
                    "lat": 34.7457767,
                    "lon": 135.4975512
                },
                {
                    "lat": 34.7457241,
                    "lon": 135.4975536
                },
                {
                    "lat": 34.7457062,
                    "lon": 135.4975403
                }
            ],
            "tags": {
                "natural": "tree_row",
                "source": "Bing, 2007-09"
            }
        },
        {
            "type": "way",
            "id": 306197167,
            "bounds": {
                "minlat": 34.7457338,
                "minlon": 135.4954072,
                "maxlat": 34.7457439,
                "maxlon": 135.4957757
            },
            "nodes": [
                3110450951,
                3110450949
            ],
            "geometry": [
                {
                    "lat": 34.7457439,
                    "lon": 135.4954072
                },
                {
                    "lat": 34.7457338,
                    "lon": 135.4957757
                }
            ],
            "tags": {
                "natural": "tree_row",
                "source": "Bing, 2011-4"
            }
        },
        {
            "type": "way",
            "id": 306197168,
            "bounds": {
                "minlat": 34.7456496,
                "minlon": 135.4951143,
                "maxlat": 34.745669,
                "maxlon": 135.4957529
            },
            "nodes": [
                3110450947,
                3110450945
            ],
            "geometry": [
                {
                    "lat": 34.745669,
                    "lon": 135.4951143
                },
                {
                    "lat": 34.7456496,
                    "lon": 135.4957529
                }
            ],
            "tags": {
                "natural": "tree_row",
                "source": "Bing, 2011-4"
            }
        },
        {
            "type": "way",
            "id": 310786788,
            "bounds": {
                "minlat": 34.7415553,
                "minlon": 135.4933953,
                "maxlat": 34.741594,
                "maxlon": 135.4947205
            },
            "nodes": [
                3162715947,
                3162715948
            ],
            "geometry": [
                {
                    "lat": 34.7415553,
                    "lon": 135.4933953
                },
                {
                    "lat": 34.741594,
                    "lon": 135.4947205
                }
            ],
            "tags": {
                "natural": "tree_row",
                "source": "Bing,2011-4"
            }
        },
        {
            "type": "way",
            "id": 310890379,
            "bounds": {
                "minlat": 34.7446442,
                "minlon": 135.4922916,
                "maxlat": 34.7448198,
                "maxlon": 135.4923414
            },
            "nodes": [
                3163912197,
                3163912176
            ],
            "geometry": [
                {
                    "lat": 34.7448198,
                    "lon": 135.4922916
                },
                {
                    "lat": 34.7446442,
                    "lon": 135.4923414
                }
            ],
            "tags": {
                "natural": "tree_row",
                "source": "Bing,2011-4"
            }
        },
        {
            "type": "way",
            "id": 310890380,
            "bounds": {
                "minlat": 34.7433025,
                "minlon": 135.4927263,
                "maxlat": 34.7436652,
                "maxlon": 135.4928247
            },
            "nodes": [
                3163911885,
                3163911879
            ],
            "geometry": [
                {
                    "lat": 34.7436652,
                    "lon": 135.4927263
                },
                {
                    "lat": 34.7433025,
                    "lon": 135.4928247
                }
            ],
            "tags": {
                "natural": "tree_row",
                "source": "Bing,2011-4"
            }
        },
        {
            "type": "way",
            "id": 310890381,
            "bounds": {
                "minlat": 34.7443636,
                "minlon": 135.4923609,
                "maxlat": 34.7445778,
                "maxlon": 135.4924186
            },
            "nodes": [
                3163912167,
                3163912056
            ],
            "geometry": [
                {
                    "lat": 34.7445778,
                    "lon": 135.4923609
                },
                {
                    "lat": 34.7443636,
                    "lon": 135.4924186
                }
            ],
            "tags": {
                "natural": "tree_row",
                "source": "Bing,2011-4"
            }
        },
        {
            "type": "way",
            "id": 310890382,
            "bounds": {
                "minlat": 34.7430985,
                "minlon": 135.4926325,
                "maxlat": 34.7434752,
                "maxlon": 135.4927448
            },
            "nodes": [
                3163911882,
                3163911868
            ],
            "geometry": [
                {
                    "lat": 34.7434752,
                    "lon": 135.4926325
                },
                {
                    "lat": 34.7430985,
                    "lon": 135.4927448
                }
            ],
            "tags": {
                "natural": "tree_row",
                "source": "Bing,2011-4"
            }
        },
        {
            "type": "way",
            "id": 310890383,
            "bounds": {
                "minlat": 34.7438043,
                "minlon": 135.4924598,
                "maxlat": 34.7441952,
                "maxlon": 135.4925659
            },
            "nodes": [
                3163912037,
                3163911937
            ],
            "geometry": [
                {
                    "lat": 34.7441952,
                    "lon": 135.4924598
                },
                {
                    "lat": 34.7438043,
                    "lon": 135.4925659
                }
            ],
            "tags": {
                "natural": "tree_row",
                "source": "Bing,2011-4"
            }
        },
        {
            "type": "way",
            "id": 310890386,
            "bounds": {
                "minlat": 34.7479379,
                "minlon": 135.4915104,
                "maxlat": 34.74801,
                "maxlon": 135.4917146
            },
            "nodes": [
                3163912587,
                3163912588,
                3163912589,
                3163912590,
                3163912595
            ],
            "geometry": [
                {
                    "lat": 34.7479379,
                    "lon": 135.4915104
                },
                {
                    "lat": 34.7479551,
                    "lon": 135.4915727
                },
                {
                    "lat": 34.7479651,
                    "lon": 135.4916151
                },
                {
                    "lat": 34.7479861,
                    "lon": 135.4916723
                },
                {
                    "lat": 34.74801,
                    "lon": 135.4917146
                }
            ],
            "tags": {
                "barrier": "hedge",
                "source": "Bing,2011-4"
            }
        },
        {
            "type": "way",
            "id": 310898635,
            "bounds": {
                "minlat": 34.7415274,
                "minlon": 135.4924275,
                "maxlat": 34.7415464,
                "maxlon": 135.4930559
            },
            "nodes": [
                3164014037,
                3164014039
            ],
            "geometry": [
                {
                    "lat": 34.7415274,
                    "lon": 135.4924275
                },
                {
                    "lat": 34.7415464,
                    "lon": 135.4930559
                }
            ],
            "tags": {
                "natural": "tree_row",
                "source": "Bing,2011-4"
            }
        },
        {
            "type": "way",
            "id": 310898636,
            "bounds": {
                "minlat": 34.7414837,
                "minlon": 135.4909612,
                "maxlat": 34.7415237,
                "maxlon": 135.4923445
            },
            "nodes": [
                3164014038,
                3164014033
            ],
            "geometry": [
                {
                    "lat": 34.7415237,
                    "lon": 135.4923445
                },
                {
                    "lat": 34.7414837,
                    "lon": 135.4909612
                }
            ],
            "tags": {
                "natural": "tree_row"
            }
        },
        {
            "type": "way",
            "id": 310898637,
            "bounds": {
                "minlat": 34.7415853,
                "minlon": 135.4909366,
                "maxlat": 34.7416061,
                "maxlon": 135.4916313
            },
            "nodes": [
                3164014043,
                3164014044
            ],
            "geometry": [
                {
                    "lat": 34.7415853,
                    "lon": 135.4909366
                },
                {
                    "lat": 34.7416061,
                    "lon": 135.4916313
                }
            ],
            "tags": {
                "natural": "tree_row"
            }
        },
        {
            "type": "way",
            "id": 310916719,
            "bounds": {
                "minlat": 34.7358064,
                "minlon": 135.4924131,
                "maxlat": 34.7360677,
                "maxlon": 135.4924153
            },
            "nodes": [
                3164215316,
                3164215295
            ],
            "geometry": [
                {
                    "lat": 34.7360677,
                    "lon": 135.4924153
                },
                {
                    "lat": 34.7358064,
                    "lon": 135.4924131
                }
            ],
            "tags": {
                "natural": "tree_row",
                "source": "Bing,2011-4"
            }
        },
        {
            "type": "way",
            "id": 310916721,
            "bounds": {
                "minlat": 34.7357888,
                "minlon": 135.4922557,
                "maxlat": 34.7360637,
                "maxlon": 135.492279
            },
            "nodes": [
                3164215317,
                3164215293
            ],
            "geometry": [
                {
                    "lat": 34.7360637,
                    "lon": 135.4922557
                },
                {
                    "lat": 34.7357888,
                    "lon": 135.492279
                }
            ],
            "tags": {
                "natural": "tree_row",
                "source": "Bing,2011-4"
            }
        },
        {
            "type": "way",
            "id": 310916725,
            "bounds": {
                "minlat": 34.7478149,
                "minlon": 135.4880506,
                "maxlat": 34.7485796,
                "maxlon": 135.4888668
            },
            "nodes": [
                3164216109,
                3164216094,
                3164216056,
                3164216025,
                3164215992
            ],
            "geometry": [
                {
                    "lat": 34.7485796,
                    "lon": 135.4888668
                },
                {
                    "lat": 34.7481615,
                    "lon": 135.488387
                },
                {
                    "lat": 34.7479685,
                    "lon": 135.4881927
                },
                {
                    "lat": 34.7478744,
                    "lon": 135.4881057
                },
                {
                    "lat": 34.7478149,
                    "lon": 135.4880506
                }
            ],
            "tags": {
                "natural": "tree_row",
                "source": "Bing,2011-4"
            }
        },
        {
            "type": "way",
            "id": 311834721,
            "bounds": {
                "minlat": 34.7477845,
                "minlon": 135.4853237,
                "maxlat": 34.748513,
                "maxlon": 135.4858429
            },
            "nodes": [
                3175718759,
                3175718695
            ],
            "geometry": [
                {
                    "lat": 34.748513,
                    "lon": 135.4858429
                },
                {
                    "lat": 34.7477845,
                    "lon": 135.4853237
                }
            ],
            "tags": {
                "barrier": "hedge",
                "source": "Bing,2011-4"
            }
        },
        {
            "type": "way",
            "id": 311857951,
            "bounds": {
                "minlat": 34.7416363,
                "minlon": 135.4923675,
                "maxlat": 34.741651,
                "maxlon": 135.4930313
            },
            "nodes": [
                3176106779,
                3176106782
            ],
            "geometry": [
                {
                    "lat": 34.7416363,
                    "lon": 135.4923675
                },
                {
                    "lat": 34.741651,
                    "lon": 135.4930313
                }
            ],
            "tags": {
                "natural": "tree_row",
                "source": "Bing,2011-4"
            }
        },
        {
            "type": "way",
            "id": 312139949,
            "bounds": {
                "minlat": 34.7430972,
                "minlon": 135.485595,
                "maxlat": 34.743496,
                "maxlon": 135.486039
            },
            "nodes": [
                3179754083,
                3179754090,
                3179754107,
                3179754082,
                3179754078
            ],
            "geometry": [
                {
                    "lat": 34.7433598,
                    "lon": 135.486039
                },
                {
                    "lat": 34.7434255,
                    "lon": 135.4857527
                },
                {
                    "lat": 34.743496,
                    "lon": 135.4856582
                },
                {
                    "lat": 34.7433593,
                    "lon": 135.485595
                },
                {
                    "lat": 34.7430972,
                    "lon": 135.4860217
                }
            ],
            "tags": {
                "barrier": "hedge",
                "source": "Bing, 2007-09"
            }
        },
        {
            "type": "way",
            "id": 312389481,
            "bounds": {
                "minlat": 34.7405708,
                "minlon": 135.491271,
                "maxlat": 34.7405935,
                "maxlon": 135.4916316
            },
            "nodes": [
                3182498242,
                3182498244
            ],
            "geometry": [
                {
                    "lat": 34.7405708,
                    "lon": 135.491271
                },
                {
                    "lat": 34.7405935,
                    "lon": 135.4916316
                }
            ],
            "tags": {
                "barrier": "hedge"
            }
        },
        {
            "type": "way",
            "id": 312515183,
            "bounds": {
                "minlat": 34.7379586,
                "minlon": 135.4896245,
                "maxlat": 34.7380133,
                "maxlon": 135.4900704
            },
            "nodes": [
                3183702854,
                3183702855
            ],
            "geometry": [
                {
                    "lat": 34.7379586,
                    "lon": 135.4896245
                },
                {
                    "lat": 34.7380133,
                    "lon": 135.4900704
                }
            ],
            "tags": {
                "barrier": "hedge"
            }
        },
        {
            "type": "way",
            "id": 312671645,
            "bounds": {
                "minlat": 34.7368847,
                "minlon": 135.4907244,
                "maxlat": 34.737233,
                "maxlon": 135.4907929
            },
            "nodes": [
                3185397379,
                3185397363
            ],
            "geometry": [
                {
                    "lat": 34.737233,
                    "lon": 135.4907244
                },
                {
                    "lat": 34.7368847,
                    "lon": 135.4907929
                }
            ],
            "tags": {
                "barrier": "hedge",
                "source": "Bing,2011-4"
            }
        },
        {
            "type": "way",
            "id": 312671648,
            "bounds": {
                "minlat": 34.7369053,
                "minlon": 135.490819,
                "maxlat": 34.7372417,
                "maxlon": 135.4908856
            },
            "nodes": [
                3185397381,
                3185397365
            ],
            "geometry": [
                {
                    "lat": 34.7372417,
                    "lon": 135.490819
                },
                {
                    "lat": 34.7369053,
                    "lon": 135.4908856
                }
            ],
            "tags": {
                "barrier": "hedge",
                "source": "Bing,2011-4"
            }
        },
        {
            "type": "way",
            "id": 312898493,
            "bounds": {
                "minlat": 34.7369502,
                "minlon": 135.48994,
                "maxlat": 34.7371359,
                "maxlon": 135.4899786
            },
            "nodes": [
                3188189729,
                3188189717
            ],
            "geometry": [
                {
                    "lat": 34.7371359,
                    "lon": 135.48994
                },
                {
                    "lat": 34.7369502,
                    "lon": 135.4899786
                }
            ],
            "tags": {
                "barrier": "hedge",
                "source": "Bing,2007-07"
            }
        },
        {
            "type": "way",
            "id": 312898495,
            "bounds": {
                "minlat": 34.7374581,
                "minlon": 135.489621,
                "maxlat": 34.7377383,
                "maxlon": 135.4896408
            },
            "nodes": [
                3188189762,
                3188189761,
                3188189758,
                3188189743,
                3188189742
            ],
            "geometry": [
                {
                    "lat": 34.7377383,
                    "lon": 135.489621
                },
                {
                    "lat": 34.7376578,
                    "lon": 135.4896304
                },
                {
                    "lat": 34.7375688,
                    "lon": 135.4896323
                },
                {
                    "lat": 34.7374697,
                    "lon": 135.4896389
                },
                {
                    "lat": 34.7374581,
                    "lon": 135.4896408
                }
            ],
            "tags": {
                "barrier": "hedge",
                "source": "Bing,2007-07"
            }
        },
        {
            "type": "way",
            "id": 312901075,
            "bounds": {
                "minlat": 34.736905,
                "minlon": 135.4887562,
                "maxlat": 34.7373624,
                "maxlon": 135.4888134
            },
            "nodes": [
                3188217894,
                3188217782
            ],
            "geometry": [
                {
                    "lat": 34.7373624,
                    "lon": 135.4887562
                },
                {
                    "lat": 34.736905,
                    "lon": 135.4888134
                }
            ],
            "tags": {
                "barrier": "hedge",
                "source": "Bing,2011-4"
            }
        },
        {
            "type": "way",
            "id": 313006224,
            "bounds": {
                "minlat": 34.7365027,
                "minlon": 135.4877542,
                "maxlat": 34.7368062,
                "maxlon": 135.4877892
            },
            "nodes": [
                3189227407,
                3189227393
            ],
            "geometry": [
                {
                    "lat": 34.7368062,
                    "lon": 135.4877542
                },
                {
                    "lat": 34.7365027,
                    "lon": 135.4877892
                }
            ],
            "tags": {
                "barrier": "hedge",
                "source": "Bing,2011-4"
            }
        },
        {
            "type": "way",
            "id": 313907084,
            "bounds": {
                "minlat": 34.7366737,
                "minlon": 135.4828566,
                "maxlat": 34.7372844,
                "maxlon": 135.4830689
            },
            "nodes": [
                3199451369,
                3199451238
            ],
            "geometry": [
                {
                    "lat": 34.7372844,
                    "lon": 135.4828566
                },
                {
                    "lat": 34.7366737,
                    "lon": 135.4830689
                }
            ],
            "tags": {
                "barrier": "hedge",
                "source": "Bing,2011-4"
            }
        },
        {
            "type": "way",
            "id": 313907085,
            "bounds": {
                "minlat": 34.7362786,
                "minlon": 135.4851438,
                "maxlat": 34.7363539,
                "maxlon": 135.485232
            },
            "nodes": [
                3199451129,
                3199451097,
                3199451099
            ],
            "geometry": [
                {
                    "lat": 34.7363539,
                    "lon": 135.4851438
                },
                {
                    "lat": 34.7362786,
                    "lon": 135.4851518
                },
                {
                    "lat": 34.7362844,
                    "lon": 135.485232
                }
            ],
            "tags": {
                "barrier": "hedge",
                "source": "Bing,2011-4"
            }
        },
        {
            "type": "way",
            "id": 313907089,
            "bounds": {
                "minlat": 34.7362587,
                "minlon": 135.4852821,
                "maxlat": 34.7363847,
                "maxlon": 135.4853159
            },
            "nodes": [
                3199451145,
                3199451110,
                3199451109,
                3199451093
            ],
            "geometry": [
                {
                    "lat": 34.7363847,
                    "lon": 135.4853089
                },
                {
                    "lat": 34.736325,
                    "lon": 135.4853159
                },
                {
                    "lat": 34.7363223,
                    "lon": 135.4852821
                },
                {
                    "lat": 34.7362587,
                    "lon": 135.4852896
                }
            ],
            "tags": {
                "barrier": "hedge",
                "source": "Bing,2011-4"
            }
        },
        {
            "type": "way",
            "id": 314199023,
            "bounds": {
                "minlat": 34.7349606,
                "minlon": 135.4823178,
                "maxlat": 34.7350279,
                "maxlon": 135.4827384
            },
            "nodes": [
                3202443442,
                3202443445
            ],
            "geometry": [
                {
                    "lat": 34.7349606,
                    "lon": 135.4823178
                },
                {
                    "lat": 34.7350279,
                    "lon": 135.4827384
                }
            ],
            "tags": {
                "barrier": "hedge",
                "source": "Bing,2011-4"
            }
        },
        {
            "type": "way",
            "id": 321583414,
            "bounds": {
                "minlat": 34.7359732,
                "minlon": 135.5042229,
                "maxlat": 34.7360696,
                "maxlon": 135.5047794
            },
            "nodes": [
                3283428545,
                3283428554
            ],
            "geometry": [
                {
                    "lat": 34.7359732,
                    "lon": 135.5042229
                },
                {
                    "lat": 34.7360696,
                    "lon": 135.5047794
                }
            ],
            "tags": {
                "natural": "tree_row",
                "source": "Bing,2011-4"
            }
        },
        {
            "type": "way",
            "id": 321583415,
            "bounds": {
                "minlat": 34.735777,
                "minlon": 135.5031725,
                "maxlat": 34.7359233,
                "maxlon": 135.5039782
            },
            "nodes": [
                3283428541,
                3283428527
            ],
            "geometry": [
                {
                    "lat": 34.7359233,
                    "lon": 135.5039782
                },
                {
                    "lat": 34.735777,
                    "lon": 135.5031725
                }
            ],
            "tags": {
                "natural": "tree_row",
                "source": "Bing,2011-4"
            }
        },
        {
            "type": "way",
            "id": 575918897,
            "bounds": {
                "minlat": 34.7418792,
                "minlon": 135.5001368,
                "maxlat": 34.7418902,
                "maxlon": 135.5001371
            },
            "nodes": [
                5525114039,
                5525114038
            ],
            "geometry": [
                {
                    "lat": 34.7418902,
                    "lon": 135.5001368
                },
                {
                    "lat": 34.7418792,
                    "lon": 135.5001371
                }
            ],
            "tags": {
                "barrier": "hedge"
            }
        },
        {
            "type": "way",
            "id": 575918898,
            "bounds": {
                "minlat": 34.7418792,
                "minlon": 135.5000731,
                "maxlat": 34.7419037,
                "maxlon": 135.5000734
            },
            "nodes": [
                5525114041,
                5525114040
            ],
            "geometry": [
                {
                    "lat": 34.7419037,
                    "lon": 135.5000731
                },
                {
                    "lat": 34.7418792,
                    "lon": 135.5000734
                }
            ],
            "tags": {
                "barrier": "hedge"
            }
        },
        {
            "type": "way",
            "id": 575918905,
            "bounds": {
                "minlat": 34.7421846,
                "minlon": 135.5000647,
                "maxlat": 34.7422043,
                "maxlon": 135.5002162
            },
            "nodes": [
                5525114067,
                5525114066,
                5525114065,
                5525114064
            ],
            "geometry": [
                {
                    "lat": 34.7421846,
                    "lon": 135.5000647
                },
                {
                    "lat": 34.7421851,
                    "lon": 135.5001158
                },
                {
                    "lat": 34.7422032,
                    "lon": 135.5001155
                },
                {
                    "lat": 34.7422043,
                    "lon": 135.5002162
                }
            ],
            "tags": {
                "barrier": "hedge"
            }
        },
        {
            "type": "way",
            "id": 575918906,
            "bounds": {
                "minlat": 34.7422406,
                "minlon": 135.5000556,
                "maxlat": 34.7423093,
                "maxlon": 135.5002235
            },
            "nodes": [
                5525114074,
                5525114073,
                5525114072,
                5525114071,
                5525114070
            ],
            "geometry": [
                {
                    "lat": 34.7423086,
                    "lon": 135.5000556
                },
                {
                    "lat": 34.7423093,
                    "lon": 135.5001102
                },
                {
                    "lat": 34.7422889,
                    "lon": 135.5001106
                },
                {
                    "lat": 34.7422904,
                    "lon": 135.5002225
                },
                {
                    "lat": 34.7422406,
                    "lon": 135.5002235
                }
            ],
            "tags": {
                "barrier": "hedge"
            }
        },
        {
            "type": "way",
            "id": 698236498,
            "bounds": {
                "minlat": 34.7453957,
                "minlon": 135.5015074,
                "maxlat": 34.7456684,
                "maxlon": 135.5015114
            },
            "nodes": [
                6557384540,
                6557384539
            ],
            "geometry": [
                {
                    "lat": 34.7456684,
                    "lon": 135.5015114
                },
                {
                    "lat": 34.7453957,
                    "lon": 135.5015074
                }
            ],
            "tags": {
                "natural": "tree_row"
            }
        },
        {
            "type": "way",
            "id": 1265551049,
            "bounds": {
                "minlat": 34.7476461,
                "minlon": 135.5042768,
                "maxlat": 34.7476911,
                "maxlon": 135.5043034
            },
            "nodes": [
                11755761529,
                11755761528,
                11755761527,
                11755761526,
                11755761525
            ],
            "geometry": [
                {
                    "lat": 34.7476911,
                    "lon": 135.5042913
                },
                {
                    "lat": 34.7476559,
                    "lon": 135.5042768
                },
                {
                    "lat": 34.747649,
                    "lon": 135.5042816
                },
                {
                    "lat": 34.7476461,
                    "lon": 135.5042897
                },
                {
                    "lat": 34.7476796,
                    "lon": 135.5043034
                }
            ],
            "tags": {
                "barrier": "hedge"
            }
        },
        {
            "type": "way",
            "id": 1265551050,
            "bounds": {
                "minlat": 34.7477649,
                "minlon": 135.5043223,
                "maxlat": 34.7478456,
                "maxlon": 135.5051877
            },
            "nodes": [
                11755761535,
                11755761534,
                11755761533,
                11755761532,
                11755761530
            ],
            "geometry": [
                {
                    "lat": 34.7477693,
                    "lon": 135.5051877
                },
                {
                    "lat": 34.7478442,
                    "lon": 135.505119
                },
                {
                    "lat": 34.7478456,
                    "lon": 135.5043736
                },
                {
                    "lat": 34.7478318,
                    "lon": 135.5043508
                },
                {
                    "lat": 34.7477649,
                    "lon": 135.5043223
                }
            ],
            "tags": {
                "barrier": "hedge"
            }
        },
        {
            "type": "way",
            "id": 1265551056,
            "bounds": {
                "minlat": 34.7468055,
                "minlon": 135.5052363,
                "maxlat": 34.7468797,
                "maxlon": 135.5053134
            },
            "nodes": [
                11755761584,
                11755761583,
                11755761582
            ],
            "geometry": [
                {
                    "lat": 34.7468173,
                    "lon": 135.5052363
                },
                {
                    "lat": 34.7468055,
                    "lon": 135.505264
                },
                {
                    "lat": 34.7468797,
                    "lon": 135.5053134
                }
            ],
            "tags": {
                "barrier": "hedge"
            }
        },
        {
            "type": "way",
            "id": 1265551060,
            "bounds": {
                "minlat": 34.7468036,
                "minlon": 135.5050896,
                "maxlat": 34.7469492,
                "maxlon": 135.5052041
            },
            "nodes": [
                11755761600,
                11755761599,
                11755761598
            ],
            "geometry": [
                {
                    "lat": 34.7469492,
                    "lon": 135.5051484
                },
                {
                    "lat": 34.7468489,
                    "lon": 135.5050896
                },
                {
                    "lat": 34.7468036,
                    "lon": 135.5052041
                }
            ],
            "tags": {
                "barrier": "hedge"
            }
        },
        {
            "type": "way",
            "id": 1265551152,
            "bounds": {
                "minlat": 34.7498138,
                "minlon": 135.5039745,
                "maxlat": 34.7500771,
                "maxlon": 135.5042348
            },
            "nodes": [
                11755762229,
                11755762228,
                11755762227,
                11755762226,
                11755762225,
                11755762224
            ],
            "geometry": [
                {
                    "lat": 34.7498948,
                    "lon": 135.5041073
                },
                {
                    "lat": 34.7498138,
                    "lon": 135.5040462
                },
                {
                    "lat": 34.7498492,
                    "lon": 135.5039745
                },
                {
                    "lat": 34.7500771,
                    "lon": 135.5041415
                },
                {
                    "lat": 34.7500289,
                    "lon": 135.5042348
                },
                {
                    "lat": 34.7500152,
                    "lon": 135.504225
                }
            ],
            "tags": {
                "barrier": "hedge"
            }
        },
        {
            "type": "way",
            "id": 1294963015,
            "bounds": {
                "minlat": 34.7346099,
                "minlon": 135.5049969,
                "maxlat": 34.7351158,
                "maxlon": 135.5051679
            },
            "nodes": [
                12000717580,
                12000717579
            ],
            "geometry": [
                {
                    "lat": 34.7351158,
                    "lon": 135.5051679
                },
                {
                    "lat": 34.7346099,
                    "lon": 135.5049969
                }
            ],
            "tags": {
                "barrier": "hedge"
            }
        },
        {
            "type": "way",
            "id": 1294963016,
            "bounds": {
                "minlat": 34.7352453,
                "minlon": 135.5052115,
                "maxlat": 34.7357582,
                "maxlon": 135.5053827
            },
            "nodes": [
                12000717582,
                12000717581
            ],
            "geometry": [
                {
                    "lat": 34.7352453,
                    "lon": 135.5052115
                },
                {
                    "lat": 34.7357582,
                    "lon": 135.5053827
                }
            ],
            "tags": {
                "barrier": "hedge"
            }
        },
        {
            "type": "way",
            "id": 1319599985,
            "bounds": {
                "minlat": 34.7463162,
                "minlon": 135.4932443,
                "maxlat": 34.746389,
                "maxlon": 135.4934155
            },
            "nodes": [
                12211565763,
                12211565762,
                12211565761,
                12211565760
            ],
            "geometry": [
                {
                    "lat": 34.7463162,
                    "lon": 135.4932515
                },
                {
                    "lat": 34.7463538,
                    "lon": 135.4932443
                },
                {
                    "lat": 34.746389,
                    "lon": 135.4933987
                },
                {
                    "lat": 34.7463498,
                    "lon": 135.4934155
                }
            ],
            "tags": {
                "barrier": "hedge"
            }
        }
    ]
}